HST                     
1 20580U 90037B   26066.07173350  .00008800  00000+0  29166-3 0  9992
2 20580  28.4710  57.8566 0001811 100.2255 259.8544 15.29432288772919
POLAR                   
1 23802U 96013A   26064.05696403  .00000171  00000+0  00000+0 0  9992
2 23802  79.7448 228.2423 6364650 212.6113  83.8068  1.29845804143502
SWAS                    
1 25560U 98071A   26066.14831404  .00004706  00000+0  30451-3 0  9990
2 25560  69.8954 130.5139 0003938  17.8600 342.2701 15.08861480481876
CXO                     
1 25867U 99040B   26068.88760878  .00000910  00000+0  00000+0 0  9992
2 25867  54.5228 119.6617 7994402 310.7122   0.3528  0.37803210 16940
XMM-NEWTON              
1 25989U 99066A   26067.62479432  .00000097  00000+0  00000+0 0  9995
2 25989  64.9887 284.2959 4710152  66.6833 359.9644  0.50132007 22505
TERRA                   
1 25994U 99068A   26066.18245512  .00000502  00000+0  11129-3 0  9992
2 25994  97.9598 119.7129 0002549 157.7007 269.8251 14.61011101394718
CLUSTER II-FM7 (SAMBA)  
1 26410U 00041A   26063.25310773  .00003639  00000+0  00000+0 0  9992
2 26410 148.9920  34.5676 8908777 250.6745 359.7226  0.44785609 19832
CLUSTER II-FM8 (TANGO)  
1 26464U 00045B   26049.06287974  .00004776  00000+0  00000+0 0  9997
2 26464 149.0711  33.5376 8890045 249.4570 359.4916  0.44405995 19769
ODIN                    
1 26702U 01007A   26066.09441572  .00047846  00000+0  62953-3 0  9993
2 26702  97.4077 102.0336 0004428 146.4642 213.6895 15.58323428373438
TIMED                   
1 26998U 01055B   26066.17003294  .00001664  00000+0  15570-3 0  9998
2 26998  74.0660  80.3917 0003019 278.6821  81.4022 14.95011704315574
CORIOLIS                
1 27640U 03001A   26066.02191383  .00000165  00000+0  98034-4 0  9999
2 27640  98.7162  74.4553 0014663 143.8235 216.3936 14.19911487199721
SORCE                   
1 27651U 03004A   26066.17438366  .00003876  00000+0  29266-3 0  9997
2 27651  39.9900 123.4374 0016148  35.6865 324.5005 15.03073566256547
MOST                    
1 27843U 03031D   26065.99444299  .00000098  00000+0  65135-4 0  9990
2 27843  98.7083  75.1331 0009788 181.3424 178.7729 14.21298293176192
SCISAT 1                
1 27858U 03036A   26066.18416807  .00001150  00000+0  15191-3 0  9993
2 27858  73.9321  13.9899 0005839 105.4810 254.7011 14.81305485216345
SWIFT                   
1 28485U 04047A   26065.79408071  .00045449  00000+0  54737-3 0  9991
2 28485  20.5529 249.2327 0003487 356.0268   4.0148 15.58979633170813
HINODE (SOLAR-B)        
1 29479U 06041A   26065.98228999  .00000826  00000+0  15086-3 0  9995
2 29479  98.0626  83.6174 0016218 250.8353 109.1097 14.68468309 39870
SHIJIAN-6 02A (SJ-6 02A)
1 29505U 06046A   26066.20269631  .00007017  00000+0  37239-3 0  9997
2 29505  97.6497 106.5273 0004581 120.0969 240.0717 15.15650840 56810
