[{"OBJECT_NAME":"HST","OBJECT_ID":"1990-037B","EPOCH":"2026-03-07T01:43:17.774400","MEAN_MOTION":15.29432288,"ECCENTRICITY":0.0001811,"INCLINATION":28.471,"RA_OF_ASC_NODE":57.8566,"ARG_OF_PERICENTER":100.2255,"MEAN_ANOMALY":259.8544,"EPHEMERIS_TYPE":0,"CLASSIFICATION_TYPE":"U","NORAD_CAT_ID":20580,"ELEMENT_SET_NO":999,"REV_AT_EPOCH":77291,"BSTAR":0.00029166,"MEAN_MOTION_DOT":8.8e-5,"MEAN_MOTION_DDOT":0},{"OBJECT_NAME":"POLAR","OBJECT_ID":"1996-013A","EPOCH":"2026-03-05T01:22:01.692192","MEAN_MOTION":1.29845804,"ECCENTRICITY":0.63646509,"INCLINATION":79.7448,"RA_OF_ASC_NODE":228.2423,"ARG_OF_PERICENTER":212.6113,"MEAN_ANOMALY":83.8068,"EPHEMERIS_TYPE":0,"CLASSIFICATION_TYPE":"U","NORAD_CAT_ID":23802,"ELEMENT_SET_NO":999,"REV_AT_EPOCH":14350,"BSTAR":0,"MEAN_MOTION_DOT":1.71e-6,"MEAN_MOTION_DDOT":0},{"OBJECT_NAME":"SWAS","OBJECT_ID":"1998-071A","EPOCH":"2026-03-07T03:33:34.333056","MEAN_MOTION":15.0886148,"ECCENTRICITY":0.0003938,"INCLINATION":69.8954,"RA_OF_ASC_NODE":130.5139,"ARG_OF_PERICENTER":17.86,"MEAN_ANOMALY":342.2701,"EPHEMERIS_TYPE":0,"CLASSIFICATION_TYPE":"U","NORAD_CAT_ID":25560,"ELEMENT_SET_NO":999,"REV_AT_EPOCH":48187,"BSTAR":0.00030451,"MEAN_MOTION_DOT":4.706e-5,"MEAN_MOTION_DDOT":0},{"OBJECT_NAME":"CXO","OBJECT_ID":"1999-040B","EPOCH":"2026-03-09T21:18:09.398592","MEAN_MOTION":0.3780321,"ECCENTRICITY":0.7994402,"INCLINATION":54.5228,"RA_OF_ASC_NODE":119.6617,"ARG_OF_PERICENTER":310.7122,"MEAN_ANOMALY":0.3528,"EPHEMERIS_TYPE":0,"CLASSIFICATION_TYPE":"U","NORAD_CAT_ID":25867,"ELEMENT_SET_NO":999,"REV_AT_EPOCH":1694,"BSTAR":0,"MEAN_MOTION_DOT":9.1e-6,"MEAN_MOTION_DDOT":0},{"OBJECT_NAME":"XMM-NEWTON","OBJECT_ID":"1999-066A","EPOCH":"2026-03-08T14:59:42.229248","MEAN_MOTION":0.50132007,"ECCENTRICITY":0.47101526,"INCLINATION":64.9887,"RA_OF_ASC_NODE":284.2959,"ARG_OF_PERICENTER":66.6833,"MEAN_ANOMALY":359.9644,"EPHEMERIS_TYPE":0,"CLASSIFICATION_TYPE":"U","NORAD_CAT_ID":25989,"ELEMENT_SET_NO":999,"REV_AT_EPOCH":2250,"BSTAR":0,"MEAN_MOTION_DOT":9.7e-7,"MEAN_MOTION_DDOT":0},{"OBJECT_NAME":"TERRA","OBJECT_ID":"1999-068A","EPOCH":"2026-03-07T04:22:44.122368","MEAN_MOTION":14.61011101,"ECCENTRICITY":0.0002549,"INCLINATION":97.9598,"RA_OF_ASC_NODE":119.7129,"ARG_OF_PERICENTER":157.7007,"MEAN_ANOMALY":269.8251,"EPHEMERIS_TYPE":0,"CLASSIFICATION_TYPE":"U","NORAD_CAT_ID":25994,"ELEMENT_SET_NO":999,"REV_AT_EPOCH":39471,"BSTAR":0.00011129,"MEAN_MOTION_DOT":5.02e-6,"MEAN_MOTION_DDOT":0},{"OBJECT_NAME":"CLUSTER II-FM7 (SAMBA)","OBJECT_ID":"2000-041A","EPOCH":"2026-03-04T06:04:28.507872","MEAN_MOTION":0.44785609,"ECCENTRICITY":0.89087774,"INCLINATION":148.992,"RA_OF_ASC_NODE":34.5676,"ARG_OF_PERICENTER":250.6745,"MEAN_ANOMALY":359.7226,"EPHEMERIS_TYPE":0,"CLASSIFICATION_TYPE":"U","NORAD_CAT_ID":26410,"ELEMENT_SET_NO":999,"REV_AT_EPOCH":1983,"BSTAR":0,"MEAN_MOTION_DOT":3.639e-5,"MEAN_MOTION_DDOT":0},{"OBJECT_NAME":"CLUSTER II-FM8 (TANGO)","OBJECT_ID":"2000-045B","EPOCH":"2026-02-18T01:30:32.809536","MEAN_MOTION":0.44405995,"ECCENTRICITY":0.88900451,"INCLINATION":149.0711,"RA_OF_ASC_NODE":33.5376,"ARG_OF_PERICENTER":249.457,"MEAN_ANOMALY":359.4916,"EPHEMERIS_TYPE":0,"CLASSIFICATION_TYPE":"U","NORAD_CAT_ID":26464,"ELEMENT_SET_NO":999,"REV_AT_EPOCH":1976,"BSTAR":0,"MEAN_MOTION_DOT":4.776e-5,"MEAN_MOTION_DDOT":0},{"OBJECT_NAME":"ODIN","OBJECT_ID":"2001-007A","EPOCH":"2026-03-07T02:15:57.518208","MEAN_MOTION":15.58323428,"ECCENTRICITY":0.0004428,"INCLINATION":97.4077,"RA_OF_ASC_NODE":102.0336,"ARG_OF_PERICENTER":146.4642,"MEAN_ANOMALY":213.6895,"EPHEMERIS_TYPE":0,"CLASSIFICATION_TYPE":"U","NORAD_CAT_ID":26702,"ELEMENT_SET_NO":999,"REV_AT_EPOCH":37343,"BSTAR":0.00062953,"MEAN_MOTION_DOT":0.00047846,"MEAN_MOTION_DDOT":0},{"OBJECT_NAME":"TIMED","OBJECT_ID":"2001-055B","EPOCH":"2026-03-07T04:04:50.846016","MEAN_MOTION":14.95011704,"ECCENTRICITY":0.0003019,"INCLINATION":74.066,"RA_OF_ASC_NODE":80.3917,"ARG_OF_PERICENTER":278.6821,"MEAN_ANOMALY":81.4022,"EPHEMERIS_TYPE":0,"CLASSIFICATION_TYPE":"U","NORAD_CAT_ID":26998,"ELEMENT_SET_NO":999,"REV_AT_EPOCH":31557,"BSTAR":0.0001557,"MEAN_MOTION_DOT":1.664e-5,"MEAN_MOTION_DDOT":0},{"OBJECT_NAME":"CORIOLIS","OBJECT_ID":"2003-001A","EPOCH":"2026-03-07T00:31:33.354912","MEAN_MOTION":14.19911487,"ECCENTRICITY":0.0014663,"INCLINATION":98.7162,"RA_OF_ASC_NODE":74.4553,"ARG_OF_PERICENTER":143.8235,"MEAN_ANOMALY":216.3936,"EPHEMERIS_TYPE":0,"CLASSIFICATION_TYPE":"U","NORAD_CAT_ID":27640,"ELEMENT_SET_NO":999,"REV_AT_EPOCH":19972,"BSTAR":9.8034e-5,"MEAN_MOTION_DOT":1.65e-6,"MEAN_MOTION_DDOT":0},{"OBJECT_NAME":"SORCE","OBJECT_ID":"2003-004A","EPOCH":"2026-03-07T04:11:06.748224","MEAN_MOTION":15.03073566,"ECCENTRICITY":0.0016148,"INCLINATION":39.99,"RA_OF_ASC_NODE":123.4374,"ARG_OF_PERICENTER":35.6865,"MEAN_ANOMALY":324.5005,"EPHEMERIS_TYPE":0,"CLASSIFICATION_TYPE":"U","NORAD_CAT_ID":27651,"ELEMENT_SET_NO":999,"REV_AT_EPOCH":25654,"BSTAR":0.00029266,"MEAN_MOTION_DOT":3.876e-5,"MEAN_MOTION_DDOT":0},{"OBJECT_NAME":"MOST","OBJECT_ID":"2003-031D","EPOCH":"2026-03-06T23:51:59.874336","MEAN_MOTION":14.21298293,"ECCENTRICITY":0.0009788,"INCLINATION":98.7083,"RA_OF_ASC_NODE":75.1331,"ARG_OF_PERICENTER":181.3424,"MEAN_ANOMALY":178.7729,"EPHEMERIS_TYPE":0,"CLASSIFICATION_TYPE":"U","NORAD_CAT_ID":27843,"ELEMENT_SET_NO":999,"REV_AT_EPOCH":17619,"BSTAR":6.5135e-5,"MEAN_MOTION_DOT":9.8e-7,"MEAN_MOTION_DDOT":0},{"OBJECT_NAME":"SCISAT 1","OBJECT_ID":"2003-036A","EPOCH":"2026-03-07T04:25:12.121248","MEAN_MOTION":14.81305485,"ECCENTRICITY":0.0005839,"INCLINATION":73.9321,"RA_OF_ASC_NODE":13.9899,"ARG_OF_PERICENTER":105.481,"MEAN_ANOMALY":254.7011,"EPHEMERIS_TYPE":0,"CLASSIFICATION_TYPE":"U","NORAD_CAT_ID":27858,"ELEMENT_SET_NO":999,"REV_AT_EPOCH":21634,"BSTAR":0.00015191,"MEAN_MOTION_DOT":1.15e-5,"MEAN_MOTION_DDOT":0},{"OBJECT_NAME":"SWIFT","OBJECT_ID":"2004-047A","EPOCH":"2026-03-06T19:03:28.573344","MEAN_MOTION":15.58979633,"ECCENTRICITY":0.0003487,"INCLINATION":20.5529,"RA_OF_ASC_NODE":249.2327,"ARG_OF_PERICENTER":356.0268,"MEAN_ANOMALY":4.0148,"EPHEMERIS_TYPE":0,"CLASSIFICATION_TYPE":"U","NORAD_CAT_ID":28485,"ELEMENT_SET_NO":999,"REV_AT_EPOCH":17081,"BSTAR":0.00054737,"MEAN_MOTION_DOT":0.00045449,"MEAN_MOTION_DDOT":0},{"OBJECT_NAME":"HINODE (SOLAR-B)","OBJECT_ID":"2006-041A","EPOCH":"2026-03-06T23:34:29.855136","MEAN_MOTION":14.68468309,"ECCENTRICITY":0.0016218,"INCLINATION":98.0626,"RA_OF_ASC_NODE":83.6174,"ARG_OF_PERICENTER":250.8353,"MEAN_ANOMALY":109.1097,"EPHEMERIS_TYPE":0,"CLASSIFICATION_TYPE":"U","NORAD_CAT_ID":29479,"ELEMENT_SET_NO":999,"REV_AT_EPOCH":3987,"BSTAR":0.00015086,"MEAN_MOTION_DOT":8.26e-6,"MEAN_MOTION_DDOT":0},{"OBJECT_NAME":"SHIJIAN-6 02A (SJ-6 02A)","OBJECT_ID":"2006-046A","EPOCH":"2026-03-07T04:51:52.961184","MEAN_MOTION":15.1565084,"ECCENTRICITY":0.0004581,"INCLINATION":97.6497,"RA_OF_ASC_NODE":106.5273,"ARG_OF_PERICENTER":120.0969,"MEAN_ANOMALY":240.0717,"EPHEMERIS_TYPE":0,"CLASSIFICATION_TYPE":"U","NORAD_CAT_ID":29505,"ELEMENT_SET_NO":999,"REV_AT_EPOCH":5681,"BSTAR":0.00037239,"MEAN_MOTION_DOT":7.017e-5,"MEAN_MOTION_DDOT":0}]
